NORAD_CAT_ID,OBJECT_NAME,OBJECT_TYPE,EPOCH,MEAN_MOTION,ECCENTRICITY,INCLINATION,RA_OF_ASC_NODE,ARG_OF_PERICENTER,MEAN_ANOMALY,BSTAR,MEAN_MOTION_DOT,MEAN_MOTION_DDOT,TLE_LINE0,TLE_LINE1,TLE_LINE2,SEMIMAJOR_AXIS,PERIOD,APOGEE,PERIGEE,DECAYED
54183.0,STARLINK-5239,PAYLOAD,2023-10-15 22:00:00,15.08832282,0.0001423,53.2167,335.6351,92.8417,327.9361,-0.00029661,-5.004e-05,0.0,0 STARLINK-5239,1 54183U 22141AC  23288.91667824 -.00005004  00000-0 -29661-3 0  9995,2 54183  53.2167 335.6351 0001423  92.8417 327.9361 15.08832282 53877,6917.904,95.438,540.753,538.785,0.0
54183.0,STARLINK-5239,PAYLOAD,2023-10-16 14:00:01,15.08799861,0.0001384,53.2162,332.644,80.8593,3.0849,0.0035625,0.00056804,0.0,0 STARLINK-5239,1 54183U 22141AC  23289.58334491  .00056804  00000-0  35625-2 0  9998,2 54183  53.2162 332.6440 0001384  80.8593   3.0849 15.08799861  5826,6918.003,95.44,540.826,538.911,0.0
54183.0,STARLINK-5239,PAYLOAD,2023-10-16 22:00:00,15.08824602,0.0001372,53.2161,331.1458,90.3606,5.1676,0.0027808,0.00044228,0.0,0 STARLINK-5239,1 54183U 22141AC  23289.91667824  .00044228  00000-0  27808-2 0  9995,2 54183  53.2161 331.1458 0001372  90.3606   5.1676 15.08824602  5740,6917.927,95.439,540.742,538.843,0.0
54183.0,STARLINK-5239,PAYLOAD,2023-10-17 00:00:00,15.08822412,0.000139,53.2159,330.7714,91.8769,96.5507,0.0039045,0.00062372,0.0,0 STARLINK-5239,1 54183U 22141AC  23290.00001157  .00062372  00000-0  39045-2 0  9994,2 54183  53.2159 330.7714 0001390  91.8769  96.5507 15.08822412 54033,6917.934,95.439,540.761,538.838,0.0
54183.0,STARLINK-5239,PAYLOAD,2023-10-17 14:00:01,15.08814731,0.0001437,53.2157,328.1545,87.1808,31.5675,0.0015558,0.00024542,0.0,0 STARLINK-5239,1 54183U 22141AC  23290.58334491  .00024542  00000-0  15558-2 0  9997,2 54183  53.2157 328.1545 0001437  87.1808  31.5675 15.08814731 54128,6917.958,95.439,540.817,538.829,0.0
54183.0,STARLINK-5239,PAYLOAD,2023-10-18 06:00:00,15.08880806,0.0001551,53.2158,325.1604,92.8221,49.085,-0.004354,-0.00068996,0.0,0 STARLINK-5239,1 54183U 22141AC  23291.25001157 -.00068996  00000-0 -43540-2 0  9997,2 54183  53.2158 325.1604 0001551  92.8221  49.0850 15.08880806  5559,6917.756,95.435,540.694,538.548,0.0
54183.0,STARLINK-5239,PAYLOAD,2023-10-18 14:00:01,15.0880194,0.0001505,53.2156,323.6649,81.3898,72.1352,0.0022669,0.00035936,0.0,0 STARLINK-5239,1 54183U 22141AC  23291.58334491  .00035936  00000-0  22669-2 0  9998,2 54183  53.2156 323.6649 0001505  81.3898  72.1352 15.08801940 54270,6917.997,95.44,540.903,538.821,0.0
54183.0,STARLINK-5239,PAYLOAD,2023-10-18 22:00:00,15.08806251,0.0001487,53.2159,322.1666,88.5585,76.5427,0.0032671,0.00052044,0.0,0 STARLINK-5239,1 54183U 22141AC  23291.91667824  .00052044  00000-0  32671-2 0  9997,2 54183  53.2159 322.1666 0001487  88.5585  76.5427 15.08806251  5656,6917.984,95.44,540.877,538.82,0.0
54183.0,STARLINK-5239,PAYLOAD,2023-10-19 11:34:46,15.08854556,0.0001749,53.2171,319.6251,94.7145,265.4047,0.00046695,7.154e-05,0.0,0 STARLINK-5239,1 54183U 22141AC  23292.48247865  .00007154  00000-0  46695-3 0  9993,2 54183  53.2171 319.6251 0001749  94.7145 265.4047 15.08854556 54183,6917.836,95.437,540.911,538.491,0.0
54183.0,STARLINK-5239,PAYLOAD,2023-10-19 21:07:05,15.08843102,0.000163,53.2171,317.8403,114.0217,246.0946,0.0002318,3.403e-05,0.0,0 STARLINK-5239,1 54183U 22141AC  23292.87991995  .00003403  00000-0  23180-3 0  9993,2 54183  53.2171 317.8403 0001630 114.0217 246.0946 15.08843102 54477,6917.871,95.437,540.864,538.608,0.0
54183.0,STARLINK-5239,PAYLOAD,2023-10-20 11:25:33,15.08846028,0.0001597,53.2167,315.1639,107.9249,252.1918,0.00025404,3.758e-05,0.0,0 STARLINK-5239,1 54183U 22141AC  23293.47608012  .00003758  00000-0  25404-3 0  9999,2 54183  53.2167 315.1639 0001597 107.9249 252.1918 15.08846028 54334,6917.862,95.437,540.832,538.622,0.0
54183.0,STARLINK-5239,PAYLOAD,2023-10-21 01:44:02,15.08837114,0.0001812,53.2167,312.486,95.2047,264.9152,9.5085e-05,1.225e-05,0.0,0 STARLINK-5239,1 54183U 22141AC  23294.07224604  .00001225  00000-0  95085-4 0  9997,2 54183  53.2167 312.4860 0001812  95.2047 264.9152 15.08837114 54657,6917.889,95.438,541.008,538.501,0.0
54183.0,STARLINK-5239,PAYLOAD,2023-10-21 08:05:34,15.08843008,0.0001577,53.2171,311.2961,98.473,261.6441,0.00016786,2.385e-05,0.0,0 STARLINK-5239,1 54183U 22141AC  23294.33720401  .00002385  00000-0  16786-3 0  9990,2 54183  53.2171 311.2961 0001577  98.4730 261.6441 15.08843008 54466,6917.871,95.437,540.827,538.645,0.0
54183.0,STARLINK-5239,PAYLOAD,2023-10-22 04:45:35,15.08840911,0.0001534,53.2169,307.431,101.1693,258.9471,0.00016123,2.279e-05,0.0,0 STARLINK-5239,1 54183U 22141AC  23295.19832529  .00002279  00000-0  16123-3 0  9997,2 54183  53.2169 307.4310 0001534 101.1693 258.9471 15.08840911 54823,6917.878,95.437,540.804,538.681,0.0
54183.0,STARLINK-5239,PAYLOAD,2023-10-22 07:56:21,15.08845004,0.0001746,53.2175,306.8405,105.6962,254.4222,0.00024984,3.691e-05,0.0,0 STARLINK-5239,1 54183U 22141AC  23295.33080427  .00003691  00000-0  24984-3 0  9998,2 54183  53.2175 306.8405 0001746 105.6962 254.4222 15.08845004 54611,6917.865,95.437,540.938,538.522,0.0
54183.0,STARLINK-5239,PAYLOAD,2023-10-23 04:36:22,15.08834782,0.0001611,53.2178,302.9753,106.8563,253.2606,1.2538e-05,-8.8e-07,0.0,0 STARLINK-5239,1 54183U 22141AC  23296.19193056 -.00000088  00000-0  12538-4 0  9997,2 54183  53.2178 302.9753 0001611 106.8563 253.2606 15.08834782 54971,6917.896,95.438,540.876,538.647,0.0
54183.0,STARLINK-5239,PAYLOAD,2023-10-23 17:19:28,15.08835075,0.0001483,53.2174,300.5967,96.4763,263.6398,4.4217e-05,4.16e-06,0.0,0 STARLINK-5239,1 54183U 22141AC  23296.72185301  .00000416  00000-0  44217-4 0  9993,2 54183  53.2174 300.5967 0001483  96.4763 263.6398 15.08835075 54824,6917.895,95.438,540.786,538.735,0.0
54183.0,STARLINK-5239,PAYLOAD,2023-10-24 09:13:19,15.08850674,0.0001469,53.2166,297.6229,97.0617,263.0542,0.00034181,5.158e-05,0.0,0 STARLINK-5239,1 54183U 22141AC  23297.38424825  .00005158  00000-0  34181-3 0  9999,2 54183  53.2166 297.6229 0001469  97.0617 263.0542 15.08850674 55155,6917.848,95.437,540.729,538.697,0.0
54183.0,STARLINK-5239,PAYLOAD,2023-10-25 09:04:06,15.08843104,0.0001758,53.2179,293.16,75.3552,284.7635,0.00012207,1.655e-05,0.0,0 STARLINK-5239,1 54183U 22141AC  23298.37785148  .00001655  00000-0  12207-3 0  9990,2 54183  53.2179 293.1600 0001758  75.3552 284.7635 15.08843104 55301,6917.871,95.437,540.952,538.52,0.0
54183.0,STARLINK-5239,PAYLOAD,2023-10-26 05:44:06,15.08850671,0.0001459,53.2165,289.2938,94.3405,265.7754,0.00012622,1.722e-05,0.0,0 STARLINK-5239,1 54183U 22141AC  23299.23896691  .00001722  00000-0  12622-3 0  9998,2 54183  53.2165 289.2938 0001459  94.3405 265.7754 15.08850671 55209,6917.848,95.437,540.722,538.703,0.0
54183.0,STARLINK-5239,PAYLOAD,2023-10-26 16:51:48,15.08850478,0.0001389,53.2161,287.2147,93.6653,266.4498,0.00016223,2.296e-05,0.0,0 STARLINK-5239,1 54183U 22141AC  23299.70264617  .00002296  00000-0  16223-3 0  9995,2 54183  53.2161 287.2147 0001389  93.6653 266.4498 15.08850478 55505,6917.848,95.437,540.674,538.752,0.0
54183.0,STARLINK-5239,PAYLOAD,2023-10-27 08:45:39,15.0884937,0.0001262,53.2171,284.2394,108.0958,252.0172,0.00017781,2.544e-05,0.0,0 STARLINK-5239,1 54183U 22141AC  23300.36504358  .00002544  00000-0  17781-3 0  9995,2 54183  53.2171 284.2394 0001262 108.0958 252.0172 15.08849370 55370,6917.852,95.437,540.59,538.844,0.0
54183.0,STARLINK-5239,PAYLOAD,2023-10-27 23:04:08,15.08837648,0.0001597,53.2165,281.5629,96.6185,263.4989,1.1895e-05,-9.9e-07,0.0,0 STARLINK-5239,1 54183U 22141AC  23300.96121073 -.00000099  00000-0  11895-4 0  9995,2 54183  53.2165 281.5629 0001597  96.6185 263.4989 15.08837648 55691,6917.888,95.438,540.857,538.648,0.0
54183.0,STARLINK-5239,PAYLOAD,2023-10-28 08:36:27,15.08838655,0.0001478,53.2165,279.778,96.3501,263.766,6.9704e-05,8.22e-06,0.0,0 STARLINK-5239,1 54183U 22141AC  23301.35865146  .00000822  00000-0  69704-4 0  9990,2 54183  53.2165 279.7780 0001478  96.3501 263.7660 15.08838655 55525,6917.885,95.438,540.772,538.727,0.0
54183.0,STARLINK-5239,PAYLOAD,2023-10-28 22:54:55,15.08840333,0.0001419,53.2166,277.102,100.5637,259.5515,0.00020249,2.936e-05,0.0,0 STARLINK-5239,1 54183U 22141AC  23301.95481297  .00002936  00000-0  20249-3 0  9995,2 54183  53.2166 277.1020 0001419 100.5637 259.5515 15.08840333 55616,6917.879,95.438,540.726,538.763,0.0
54183.0,STARLINK-5239,PAYLOAD,2023-10-29 05:16:27,15.08854962,0.0001402,53.2166,275.9125,93.8717,266.2435,0.00054106,8.337e-05,0.0,0 STARLINK-5239,1 54183U 22141AC  23302.21976760  .00008337  00000-0  54106-3 0  9999,2 54183  53.2166 275.9125 0001402  93.8717 266.2435 15.08854962 55881,6917.835,95.437,540.67,538.73,0.0
54183.0,STARLINK-5239,PAYLOAD,2023-10-29 08:27:14,15.08857245,0.0001437,53.2168,275.3175,92.8223,267.2933,0.00054099,8.336e-05,0.0,0 STARLINK-5239,1 54183U 22141AC  23302.35224591  .00008336  00000-0  54099-3 0  9992,2 54183  53.2168 275.3175 0001437  92.8223 267.2933 15.08857245 55679,6917.828,95.436,540.687,538.699,0.0
54183.0,STARLINK-5239,PAYLOAD,2023-10-29 22:45:43,15.08836177,0.0001392,53.2159,272.641,83.0339,277.0812,7.2187e-05,8.61e-06,0.0,0 STARLINK-5239,1 54183U 22141AC  23302.94841553  .00000861  00000-0  72187-4 0  9994,2 54183  53.2159 272.6410 0001392  83.0339 277.0812 15.08836177 55767,6917.892,95.438,540.72,538.794,0.0
54183.0,STARLINK-5239,PAYLOAD,2023-10-30 03:31:52,15.08837865,0.0001532,53.2162,271.749,87.6061,272.5106,8.3783e-05,1.046e-05,0.0,0 STARLINK-5239,1 54183U 22141AC  23303.14713532  .00001046  00000-0  83783-4 0  9992,2 54183  53.2162 271.7490 0001532  87.6061 272.5106 15.08837865 56028,6917.887,95.438,540.812,538.692,0.0
54183.0,STARLINK-5239,PAYLOAD,2023-10-30 22:36:30,15.08834341,0.0001516,53.2166,268.1827,84.2198,275.8967,-1.98e-05,-6.03e-06,0.0,0 STARLINK-5239,1 54183U 22141AC  23303.94202011 -.00000603  00000-0 -19800-4 0  9994,2 54183  53.2166 268.1827 0001516  84.2198 275.8967 15.08834341 55916,6917.898,95.438,540.811,538.714,0.0
